{
    "links": {
        "self": "http://www.neowsapp.com/rest/v1/neo/3803891?api_key=iIulBulltgU6a56xZRHN4H3l9WmuAYTsLGpBGhQ2"
    },
    "id": "3803891",
    "neo_reference_id": "3803891",
    "name": "(2018 GS5)",
    "designation": "2018 GS5",
    "nasa_jpl_url": "http://ssd.jpl.nasa.gov/sbdb.cgi?sstr=3803891",
    "absolute_magnitude_h": 25.5,
    "estimated_diameter": {
        "kilometers": {
            "estimated_diameter_min": 0.0211132445,
            "estimated_diameter_max": 0.0472106499
        },
        "meters": {
            "estimated_diameter_min": 21.113244479,
            "estimated_diameter_max": 47.2106498806
        },
        "miles": {
            "estimated_diameter_min": 0.0131191578,
            "estimated_diameter_max": 0.0293353287
        },
        "feet": {
            "estimated_diameter_min": 69.2691770164,
            "estimated_diameter_max": 154.8905885541
        }
    },
    "is_potentially_hazardous_asteroid": false,
    "close_approach_data": [
        {
            "close_approach_date": "2018-04-01",
            "close_approach_date_full": "2018-Apr-01 12:01",
            "epoch_date_close_approach": 1522584060000,
            "relative_velocity": {
                "kilometers_per_second": "10.3847827535",
                "kilometers_per_hour": "37385.217912613",
                "miles_per_hour": "23229.7205413122"
            },
            "miss_distance": {
                "astronomical": "0.0216399585",
                "lunar": "8.4179438565",
                "kilometers": "3237291.698488395",
                "miles": "2011559.784174051"
            },
            "orbiting_body": "Earth"
        }
    ],
    "orbital_data": {
        "orbit_id": "2",
        "orbit_determination_date": "2018-04-21 06:48:27",
        "first_observation_date": "2018-04-15",
        "last_observation_date": "2018-04-21",
        "data_arc_in_days": 6,
        "observations_used": 27,
        "orbit_uncertainty": "8",
        "minimum_orbit_intersection": ".0213953",
        "jupiter_tisserand_invariant": "3.767",
        "epoch_osculation": "2458224.5",
        "eccentricity": ".5150463938108534",
        "semi_major_axis": "1.900619531555917",
        "inclination": "6.660447652682789",
        "ascending_node_longitude": "200.4651355103018",
        "orbital_period": "957.0645030001061",
        "perihelion_distance": ".9217122958215683",
        "perihelion_argument": "308.7949907033239",
        "aphelion_distance": "2.879526767290265",
        "perihelion_time": "2458177.418241868761",
        "mean_anomaly": "17.70981252999638",
        "mean_motion": ".3761501955944552",
        "equinox": "J2000",
        "orbit_class": {
            "orbit_class_type": "APO",
            "orbit_class_description": "Near-Earth asteroid orbits which cross the Earth’s orbit similar to that of 1862 Apollo",
            "orbit_class_range": "a (semi-major axis) > 1.0 AU; q (perihelion) < 1.017 AU"
        }
    },
    "is_sentry_object": false
}